LUME 1                  
1 43908U 18111AJ  22359.65067624  .00012194  00000+0  35882-3 0  9998
2 43908  97.1650 241.6512 0018224 105.7361 254.5895 15.35046140222671
AOBA VELOX-IV           
1 43940U 19003J   22359.86723920  .00043261  00000+0  74016-3 0  9997
2 43940  97.1062  31.3414 0012729 159.3032 200.8739 15.51048927219640
MOVE-IIB                
1 44398U 19038N   22359.93234042  .00019421  00000+0  78947-3 0  9991
2 44398  97.6487 331.9592 0018258 177.4735 182.6594 15.24439221192146
SONATE                  
1 44400U 19038Q   22359.86088155  .00005359  00000+0  27443-3 0  9999
2 44400  97.6659 329.7484 0021982 188.4032 171.6836 15.16835610191921
LUCKY-7                 
1 44406U 19038W   22359.38960350  .00007224  00000+0  35452-3 0  9990
2 44406  97.6635 330.0534 0020905 186.3129 173.7844 15.18214563191900
BEESAT 9                
1 44412U 19038AC  22359.42327846  .00010053  00000+0  45830-3 0  9994
2 44412  97.6591 330.8139 0017987 187.5440 172.5527 15.20709517191672
JAISAT-1                
1 44419U 19038F   22359.48205447  .00010266  00000+0  46213-3 0  9991
2 44419  97.6593 331.8549 0017136 183.7399 176.3711 15.21153084192057
DUCHIFAT-3              
1 44854U 19089C   22359.55576334  .00005923  00000+0  44035-3 0  9998
2 44854  36.9653  46.2080 0008023 332.1030 178.3836 15.02721409166677
EYESAT-NANO             
1 44877U 19092E   22359.77182176  .00013139  00000+0  49071-3 0  9991
2 44877  97.4580 183.3997 0011539  47.5141 312.7071 15.27443452167514
ORBITAL FACTORY 2 (OF-2)
1 45113U 19071C   22359.80336302  .00053879  00000+0  62233-3 0  9998
2 45113  51.6315 189.2179 0010406 169.5812 190.5399 15.61296488163081
M2 PATHFINDER           
1 45727U 20037E   22359.52013681  .00002233  00000+0  22193-3 0  9993
2 45727  97.7422 171.7120 0013813 118.8571 241.4004 14.92639450135326
NETSAT-4                
1 46504U 20068U   22359.92096022  .00005103  00000+0  36595-3 0  9995
2 46504  97.7416 299.6729 0012809  42.2711 317.9496 15.04739194122823
NETSAT-3                
1 46505U 20068V   22359.87558460  .00003800  00000+0  27405-3 0  9991
2 46505  97.7428 299.5144 0012415  47.7760 312.4502 15.04689266122826
NETSAT-1                
1 46506U 20068W   22359.89930902  .00004480  00000+0  32287-3 0  9998
2 46506  97.7416 299.4481 0010491  61.5818 298.6398 15.04635032122827
NETSAT-2                
1 46507U 20068X   22359.77715365  .00005426  00000+0  38996-3 0  9994
2 46507  97.7401 299.3172 0009647  65.0429 295.1775 15.04655340122753
SAI-1 NANOCONNECT-2     
1 47701U 21015C   22359.46053281  .00017457  00000+0  55103-3 0  9998
2 47701  97.4073  75.9124 0010825 130.9297 229.2884 15.32853215101413
WILDTRACKCUBE-SIMBA     
1 47941U 21022K   22359.81811372  .00005079  00000+0  32521-3 0  9990
2 47941  97.5144 255.2258 0019160 208.2746 194.4700 15.08852371 96833
BEESAT-6                
1 47957U 21022AB  22359.65079462  .00007976  00000+0  47040-3 0  9995
2 47957  97.5125 255.6560 0017761 206.8959 153.1352 15.11694584 96653
SMOG-1                  
1 47964U 21022AJ  22359.64655900  .00007744  00000+0  43747-3 0  9992
2 47964  97.5152 257.1620 0016330 193.1327 166.9481 15.13276544 95763
MMSATS-1                
1 47976U 98067SJ  22359.84394971  .00063501  00000+0  45296-3 0  9992
2 47976  51.6373  75.8782 0002331 330.2548 139.1943 15.73184031100229
BCCSAT-1                
1 48041U 21022AK  22359.48983027  .00007309  00000+0  42737-3 0  9990
2 48041  97.5148 256.3575 0013362 191.9625 168.1290 15.12094031 95674
BEESAT-5                
1 48083U 21022AM  22358.94496222  .00011051  00000+0  64093-3 0  9990
2 48083  97.5099 255.0109 0017588 209.2089 150.8160 15.12204349 95685
BEESAT-7                
1 48084U 21022AN  22359.43188985  .00009200  00000+0  53836-3 0  9996
2 48084  97.5118 255.4758 0017767 207.0288 153.0019 15.11929923 95340
BEESAT-8                
1 48085U 21022AP  22359.66568807  .00006915  00000+0  41422-3 0  9995
2 48085  97.5128 255.6334 0018167 207.3325 152.6951 15.11173907 95932
LEDSAT                  
1 49069U 21073D   22359.76810283  .00004040  00000+0  24773-3 0  9990
2 49069  97.5052  68.8595 0026039   1.7218 358.4096 15.10431701 74692
HSU-SAT1                
1 53462U 98067UB  22359.51424659  .00071796  00000+0  69219-3 0  9996
2 53462  51.6358 101.6864 0007896 279.9151  80.0953 15.65807350 21064
FUTABA                  
1 53463U 98067UC  22359.58092383  .00105065  00000+0  84511-3 0  9998
2 53463  51.6340  99.8672 0008111 287.2826  72.7284 15.70086910 21098
TUMNANOSAT              
1 53464U 98067UD  22359.83061673  .00152593  00000+0  98040-3 0  9995
2 53464  51.6335  97.0238 0008484 297.9592  62.0549 15.75189303 21150
1998-067UL              
1 54534U 98067UL  22358.36257790  .00046197  00000+0  74756-3 0  9998
2 54534  51.6451 114.2610 0005772 206.8572 153.1940 15.52335194  3476
1998-067UM              
1 54535U 98067UM  22359.80154508  .00054850  00000+0  87197-3 0  9990
2 54535  51.6426 107.0760 0004764 215.7029 281.7676 15.52759570  3697
1998-067UN              
1 54536U 98067UN  22359.80456531  .00042547  00000+0  69040-3 0  9999
2 54536  51.6437 107.0930 0005496 211.3982 286.8783 15.52296618  3652
1998-067UP              
1 54537U 98067UP  22359.80266183  .00047556  00000+0  76409-3 0  9994
2 54537  51.6426 107.0842 0005302 213.0624 284.2610 15.52523463  3697
